{
  "type": "Feature",
  "properties": {
    "nombre": "Ciudad Autonoma de Buenos Aires",
    "id_ign": "02",
    "iso_id": "AR-C",
    "categoria": "Ciudad Autónoma",
    "fuente": "IGN (Instituto Geografico Nacional) via Servicio de Normalizacion de Datos Geograficos de Argentina (georef-ar)",
    "url_origen": "https://infra.datos.gob.ar/georef/provincias.ndjson",
    "dataset": "datos.gob.ar - jgm-servicio-normalizacion-datos-geograficos",
    "version_dataset": "12.1.0",
    "fecha_dataset": "2023-11-27",
    "fecha_descarga": "2026-08-08",
    "nota": "Limite oficial de CABA. NO editar a mano: regenerar desde la fuente."
  },
  "geometry": {
    "type": "MultiPolygon",
    "coordinates": [
      [
        [
          [
            -58.4553508879999,
            -34.5277628759999
          ],
          [
            -58.4540355739999,
            -34.529295217
          ],
          [
            -58.452775188,
            -34.530760997
          ],
          [
            -58.452548631,
            -34.531024475
          ],
          [
            -58.452309266,
            -34.5313028469999
          ],
          [
            -58.4520011349999,
            -34.531757958
          ],
          [
            -58.4517841489999,
            -34.5315363079999
          ],
          [
            -58.451695365,
            -34.5314456149999
          ],
          [
            -58.451550692,
            -34.531493838
          ],
          [
            -58.451438383,
            -34.531531274
          ],
          [
            -58.450853036,
            -34.532302221
          ],
          [
            -58.450701312,
            -34.532636011
          ],
          [
            -58.4506478329999,
            -34.532753665
          ],
          [
            -58.450353349,
            -34.533401531
          ],
          [
            -58.4501378969999,
            -34.534068733
          ],
          [
            -58.450067276,
            -34.534287435
          ],
          [
            -58.449910769,
            -34.5347721009999
          ],
          [
            -58.4499452809999,
            -34.535112999
          ],
          [
            -58.449577658,
            -34.535264373
          ],
          [
            -58.449123162,
            -34.5354515189999
          ],
          [
            -58.448974461,
            -34.535512748
          ],
          [
            -58.448904036,
            -34.535544977
          ],
          [
            -58.448860247,
            -34.535605548
          ],
          [
            -58.4488031399999,
            -34.5356912079999
          ],
          [
            -58.4487899759999,
            -34.5357447289999
          ],
          [
            -58.448867477,
            -34.535873895
          ],
          [
            -58.449003014,
            -34.5359624669999
          ],
          [
            -58.449145782,
            -34.536055265
          ],
          [
            -58.449281411,
            -34.536133788
          ],
          [
            -58.4493385179999,
            -34.536162341
          ],
          [
            -58.449381349,
            -34.536290833
          ],
          [
            -58.4493385179999,
            -34.536383632
          ],
          [
            -58.4492956879999,
            -34.5364692919999
          ],
          [
            -58.449238581,
            -34.536533537
          ],
          [
            -58.44915292,
            -34.536669167
          ],
          [
            -58.449102952,
            -34.5367476879999
          ],
          [
            -58.449031568,
            -34.5368547639999
          ],
          [
            -58.448967323,
            -34.536940425
          ],
          [
            -58.448874524,
            -34.537011809
          ],
          [
            -58.4488102779999,
            -34.537076054
          ],
          [
            -58.448753171,
            -34.537147438
          ],
          [
            -58.448724618,
            -34.5372045459999
          ],
          [
            -58.448710341,
            -34.537261653
          ],
          [
            -58.4486817869999,
            -34.537340174
          ],
          [
            -58.448638957,
            -34.5373687279999
          ],
          [
            -58.4485390199999,
            -34.5373687279999
          ],
          [
            -58.4484105289999,
            -34.537311621
          ],
          [
            -58.4482891759999,
            -34.537261653
          ],
          [
            -58.4481535469999,
            -34.5372045459999
          ],
          [
            -58.448107315,
            -34.53718143
          ],
          [
            -58.447982226,
            -34.537118885
          ],
          [
            -58.447946534,
            -34.537068915
          ],
          [
            -58.447982226,
            -34.537011809
          ],
          [
            -58.448089301,
            -34.537011809
          ],
          [
            -58.448217792,
            -34.537004671
          ],
          [
            -58.448232069,
            -34.536890457
          ],
          [
            -58.4481963769999,
            -34.5368333499999
          ],
          [
            -58.4480464709999,
            -34.5367191359999
          ],
          [
            -58.4479393949999,
            -34.536633475
          ],
          [
            -58.4477894889999,
            -34.536519261
          ],
          [
            -58.447575338,
            -34.536433599
          ],
          [
            -58.4474182929999,
            -34.5363408009999
          ],
          [
            -58.447318356,
            -34.536297971
          ],
          [
            -58.44721128,
            -34.536262278
          ],
          [
            -58.446961437,
            -34.5361837569999
          ],
          [
            -58.4467687009999,
            -34.5361123719999
          ],
          [
            -58.446597379,
            -34.536048127
          ],
          [
            -58.446589434,
            -34.536045858
          ],
          [
            -58.446447473,
            -34.536005296
          ],
          [
            -58.446340398,
            -34.535976744
          ],
          [
            -58.4461405229999,
            -34.535941051
          ],
          [
            -58.445919233,
            -34.535933913
          ],
          [
            -58.445705082,
            -34.535926775
          ],
          [
            -58.445540899,
            -34.535926775
          ],
          [
            -58.4454415009999,
            -34.535940975
          ],
          [
            -58.445341023,
            -34.5359553289999
          ],
          [
            -58.445198256,
            -34.5359696049999
          ],
          [
            -58.4449983819999,
            -34.536012436
          ],
          [
            -58.4447628149999,
            -34.536040989
          ],
          [
            -58.444577217,
            -34.5360766809999
          ],
          [
            -58.444441588,
            -34.5360980959999
          ],
          [
            -58.444163191,
            -34.536140926
          ],
          [
            -58.444041838,
            -34.536162341
          ],
          [
            -58.4438491019999,
            -34.5362265869999
          ],
          [
            -58.443511902,
            -34.536391043
          ],
          [
            -58.443394462,
            -34.5364483189999
          ],
          [
            -58.442946016,
            -34.536667032
          ],
          [
            -58.442586788,
            -34.536842231
          ],
          [
            -58.441548223,
            -34.537945705
          ],
          [
            -58.441533563,
            -34.5379612839999
          ],
          [
            -58.441444647,
            -34.5380557569999
          ],
          [
            -58.4411356799999,
            -34.538553538
          ],
          [
            -58.441019607,
            -34.5387405439999
          ],
          [
            -58.440930683,
            -34.538883809
          ],
          [
            -58.440901646,
            -34.5391567629999
          ],
          [
            -58.4408592999999,
            -34.5395548179999
          ],
          [
            -58.440857939,
            -34.539624191
          ],
          [
            -58.4408533609999,
            -34.5398576429999
          ],
          [
            -58.440843843,
            -34.539867161
          ],
          [
            -58.44076532,
            -34.5398957159999
          ],
          [
            -58.440573322,
            -34.5398994079999
          ],
          [
            -58.440394124,
            -34.5399028539999
          ],
          [
            -58.440351294,
            -34.539845747
          ],
          [
            -58.440338174,
            -34.539819506
          ],
          [
            -58.4403298789999,
            -34.539802917
          ],
          [
            -58.440237079,
            -34.539781502
          ],
          [
            -58.4401514199999,
            -34.539781502
          ],
          [
            -58.4400586209999,
            -34.539824332
          ],
          [
            -58.439880161,
            -34.539938546
          ],
          [
            -58.4397016999999,
            -34.539981376
          ],
          [
            -58.439606935,
            -34.539981376
          ],
          [
            -58.439508965,
            -34.539981376
          ],
          [
            -58.4394233039999,
            -34.5399956529999
          ],
          [
            -58.439344782,
            -34.5400313439999
          ],
          [
            -58.4391449079999,
            -34.54005276
          ],
          [
            -58.438966448,
            -34.5399956529999
          ],
          [
            -58.438680913,
            -34.539909993
          ],
          [
            -58.438359684,
            -34.5398885779999
          ],
          [
            -58.438067012,
            -34.5398743
          ],
          [
            -58.43781003,
            -34.539909993
          ],
          [
            -58.437724369,
            -34.539909993
          ],
          [
            -58.4376672619999,
            -34.539831471
          ],
          [
            -58.437586376,
            -34.5398083589999
          ],
          [
            -58.437567325,
            -34.539802917
          ],
          [
            -58.437547192,
            -34.539818015
          ],
          [
            -58.4375102179999,
            -34.539845747
          ],
          [
            -58.4373888649999,
            -34.539931408
          ],
          [
            -58.437296066,
            -34.539974237
          ],
          [
            -58.437074776,
            -34.5400170679999
          ],
          [
            -58.43683921,
            -34.540095591
          ],
          [
            -58.436582227,
            -34.540174113
          ],
          [
            -58.4364795389999,
            -34.5402226049999
          ],
          [
            -58.436325246,
            -34.5402954639999
          ],
          [
            -58.436032573,
            -34.540452509
          ],
          [
            -58.435511471,
            -34.540880812
          ],
          [
            -58.435418672,
            -34.54098075
          ],
          [
            -58.43529018,
            -34.5411663469999
          ],
          [
            -58.435175967,
            -34.541337669
          ],
          [
            -58.435097444,
            -34.5415232669999
          ],
          [
            -58.4350046449999,
            -34.541723142
          ],
          [
            -58.434926123,
            -34.541880186
          ],
          [
            -58.4348476009999,
            -34.5420872
          ],
          [
            -58.434811909,
            -34.54221569
          ],
          [
            -58.434769079,
            -34.542315628
          ],
          [
            -58.434690557,
            -34.5424369799999
          ],
          [
            -58.434576342,
            -34.54257261
          ],
          [
            -58.4343550529999,
            -34.542751069
          ],
          [
            -58.434148039,
            -34.542879559
          ],
          [
            -58.4339553029999,
            -34.542986635
          ],
          [
            -58.433762567,
            -34.5430865719999
          ],
          [
            -58.433434201,
            -34.543243617
          ],
          [
            -58.4329702059999,
            -34.543486323
          ],
          [
            -58.432648979,
            -34.5436719209999
          ],
          [
            -58.432349167,
            -34.543857519
          ],
          [
            -58.4321849839999,
            -34.5439645939999
          ],
          [
            -58.4319280019999,
            -34.5441787459999
          ],
          [
            -58.4315639449999,
            -34.544507111
          ],
          [
            -58.431456869,
            -34.544607049
          ],
          [
            -58.431356932,
            -34.54477837
          ],
          [
            -58.431221302,
            -34.5449711049999
          ],
          [
            -58.431114227,
            -34.545178119
          ],
          [
            -58.430964321,
            -34.5455136219999
          ],
          [
            -58.430864383,
            -34.5458419889999
          ],
          [
            -58.4308286909999,
            -34.5459776179999
          ],
          [
            -58.4307929989999,
            -34.5460918319999
          ],
          [
            -58.430757307,
            -34.5462417379999
          ],
          [
            -58.430714477,
            -34.546441613
          ],
          [
            -58.4306859239999,
            -34.5466129339999
          ],
          [
            -58.4307087999999,
            -34.546945233
          ],
          [
            -58.430728754,
            -34.547169728
          ],
          [
            -58.4306845259999,
            -34.547867179
          ],
          [
            -58.429968136,
            -34.54827252
          ],
          [
            -58.4296106529999,
            -34.548883502
          ],
          [
            -58.4290341299999,
            -34.549204856
          ],
          [
            -58.4286543229999,
            -34.5491851589999
          ],
          [
            -58.4284255539999,
            -34.5493968179999
          ],
          [
            -58.4280468589999,
            -34.549319828
          ],
          [
            -58.4276299919999,
            -34.549428539
          ],
          [
            -58.4274117429999,
            -34.548968821
          ],
          [
            -58.4272523609999,
            -34.5486330959999
          ],
          [
            -58.427202393,
            -34.5486188199999
          ],
          [
            -58.427145286,
            -34.5485331589999
          ],
          [
            -58.426938273,
            -34.548247623
          ],
          [
            -58.426909719,
            -34.548190516
          ],
          [
            -58.426831197,
            -34.5481405469999
          ],
          [
            -58.4267585589999,
            -34.548169855
          ],
          [
            -58.4266099069999,
            -34.548190516
          ],
          [
            -58.426527316,
            -34.548235884
          ],
          [
            -58.426103081,
            -34.548468913
          ],
          [
            -58.42562373,
            -34.548779082
          ],
          [
            -58.425617672,
            -34.5487830019999
          ],
          [
            -58.425553426,
            -34.548832971
          ],
          [
            -58.425546288,
            -34.548868663
          ],
          [
            -58.425560565,
            -34.5489828779999
          ],
          [
            -58.4256033949999,
            -34.5490542599999
          ],
          [
            -58.4255962569999,
            -34.5491256449999
          ],
          [
            -58.425439212,
            -34.5491684739999
          ],
          [
            -58.4253464129999,
            -34.549182752
          ],
          [
            -58.425197697,
            -34.5489442099999
          ],
          [
            -58.424750358,
            -34.5490203529999
          ],
          [
            -58.42443817,
            -34.5491627559999
          ],
          [
            -58.4242078409999,
            -34.549267818
          ],
          [
            -58.424438514,
            -34.549700096
          ],
          [
            -58.424939525,
            -34.550638982
          ],
          [
            -58.425604705,
            -34.552265126
          ],
          [
            -58.4231243629999,
            -34.5529285339999
          ],
          [
            -58.423090684,
            -34.5529375419999
          ],
          [
            -58.4229479159999,
            -34.5529875089999
          ],
          [
            -58.4229193629999,
            -34.5529803709999
          ],
          [
            -58.422862256,
            -34.552873295
          ],
          [
            -58.4223268769999,
            -34.552994649
          ],
          [
            -58.422362569,
            -34.553130278
          ],
          [
            -58.420881127,
            -34.5535218489999
          ],
          [
            -58.420742156,
            -34.5535585809999
          ],
          [
            -58.4197784739999,
            -34.553772733
          ],
          [
            -58.419185989,
            -34.553944053
          ],
          [
            -58.419063928,
            -34.5539750249999
          ],
          [
            -58.418707717,
            -34.5540654059999
          ],
          [
            -58.418186615,
            -34.5541938969999
          ],
          [
            -58.4176012679999,
            -34.5543366649999
          ],
          [
            -58.417251487,
            -34.554422325
          ],
          [
            -58.4170016429999,
            -34.5544865699999
          ],
          [
            -58.416651863,
            -34.554565093
          ],
          [
            -58.416244975,
            -34.554700721
          ],
          [
            -58.416016547,
            -34.554779245
          ],
          [
            -58.41573815,
            -34.554872044
          ],
          [
            -58.415416921,
            -34.5549933959999
          ],
          [
            -58.415245601,
            -34.555043365
          ],
          [
            -58.414974343,
            -34.555157579
          ],
          [
            -58.414660253,
            -34.555278931
          ],
          [
            -58.4144532409999,
            -34.5553645919999
          ],
          [
            -58.4142033969999,
            -34.555521636
          ],
          [
            -58.413974969,
            -34.555657265
          ],
          [
            -58.4138000249999,
            -34.555772073
          ],
          [
            -58.41374654,
            -34.555807172
          ],
          [
            -58.413638022,
            -34.555847866
          ],
          [
            -58.413518112,
            -34.555892832
          ],
          [
            -58.413444477,
            -34.5559384159999
          ],
          [
            -58.413368206,
            -34.55598563
          ],
          [
            -58.4131540549999,
            -34.5561069839999
          ],
          [
            -58.412968457,
            -34.55620692
          ],
          [
            -58.412747167,
            -34.556321135
          ],
          [
            -58.412525877,
            -34.556456765
          ],
          [
            -58.4121760959999,
            -34.556670916
          ],
          [
            -58.411976222,
            -34.55678513
          ],
          [
            -58.41171924,
            -34.55695645
          ],
          [
            -58.4114122889999,
            -34.5571777399999
          ],
          [
            -58.411226692,
            -34.557320509
          ],
          [
            -58.4111410309999,
            -34.557384753
          ],
          [
            -58.410983987,
            -34.5573990309999
          ],
          [
            -58.410869772,
            -34.557334785
          ],
          [
            -58.4107698349999,
            -34.5572562629999
          ],
          [
            -58.410723133,
            -34.5572115919999
          ],
          [
            -58.410605652,
            -34.557099219
          ],
          [
            -58.410327255,
            -34.5568565139999
          ],
          [
            -58.4101630719999,
            -34.55669947
          ],
          [
            -58.4100131659999,
            -34.5566352229999
          ],
          [
            -58.4098775369999,
            -34.556578116
          ],
          [
            -58.4097561849999,
            -34.556570978
          ],
          [
            -58.409670524,
            -34.556578116
          ],
          [
            -58.409577725,
            -34.5566138089999
          ],
          [
            -58.409434957,
            -34.556678054
          ],
          [
            -58.409406404,
            -34.5567422989999
          ],
          [
            -58.4093707119999,
            -34.556806545
          ],
          [
            -58.4093707119999,
            -34.5568993429999
          ],
          [
            -58.4093849889999,
            -34.5570135569999
          ],
          [
            -58.409413542,
            -34.557077804
          ],
          [
            -58.409577725,
            -34.5572776779999
          ],
          [
            -58.4098989519999,
            -34.5575489359999
          ],
          [
            -58.410077412,
            -34.557684566
          ],
          [
            -58.410170211,
            -34.557741673
          ],
          [
            -58.410171573,
            -34.5577503019999
          ],
          [
            -58.410191626,
            -34.5578773029999
          ],
          [
            -58.410170211,
            -34.5580200699999
          ],
          [
            -58.4101273809999,
            -34.5581271459999
          ],
          [
            -58.410063135,
            -34.558205668
          ],
          [
            -58.409293695,
            -34.558828214
          ],
          [
            -58.40456776,
            -34.56294016
          ],
          [
            -58.403654047,
            -34.563753936
          ],
          [
            -58.403140084,
            -34.5639395339999
          ],
          [
            -58.402269201,
            -34.563839597
          ],
          [
            -58.4015696389999,
            -34.5634255699999
          ],
          [
            -58.401241274,
            -34.563325633
          ],
          [
            -58.400770141,
            -34.563354187
          ],
          [
            -58.4000912449999,
            -34.5634921929999
          ],
          [
            -58.399198516,
            -34.563673669
          ],
          [
            -58.399027195,
            -34.563702223
          ],
          [
            -58.398770213,
            -34.563823575
          ],
          [
            -58.398548923,
            -34.563937789
          ],
          [
            -58.398420432,
            -34.564023451
          ],
          [
            -58.398291942,
            -34.564137665
          ],
          [
            -58.398106344,
            -34.564294709
          ],
          [
            -58.397984991,
            -34.564394646
          ],
          [
            -58.3978136699999,
            -34.564551691
          ],
          [
            -58.3977208709999,
            -34.5646302129999
          ],
          [
            -58.397563826,
            -34.5647158739999
          ],
          [
            -58.397378228,
            -34.564837226
          ],
          [
            -58.397242599,
            -34.564930025
          ],
          [
            -58.3971498,
            -34.564958578
          ],
          [
            -58.397042724,
            -34.5650085469999
          ],
          [
            -58.3969570639999,
            -34.565058516
          ],
          [
            -58.39688568,
            -34.5651013459999
          ],
          [
            -58.3968357109999,
            -34.5651227609999
          ],
          [
            -58.396771466,
            -34.565208422
          ],
          [
            -58.396742912,
            -34.5653583279999
          ],
          [
            -58.396721497,
            -34.565472542
          ],
          [
            -58.396757189,
            -34.5656367249999
          ],
          [
            -58.3968071579999,
            -34.5657580769999
          ],
          [
            -58.396878542,
            -34.5658865689999
          ],
          [
            -58.3969856159999,
            -34.5659936439999
          ],
          [
            -58.3970498629999,
            -34.5660364739999
          ],
          [
            -58.3972140459999,
            -34.5661149969999
          ],
          [
            -58.3972710269999,
            -34.5661387389999
          ],
          [
            -58.397385367,
            -34.56618638
          ],
          [
            -58.397462699,
            -34.5662381339999
          ],
          [
            -58.397500771,
            -34.566285722
          ],
          [
            -58.397443664,
            -34.5664570439999
          ],
          [
            -58.39732945,
            -34.5665331869999
          ],
          [
            -58.397256876,
            -34.566550438
          ],
          [
            -58.397171215,
            -34.56658613
          ],
          [
            -58.397042724,
            -34.5666432369999
          ],
          [
            -58.396907095,
            -34.566728897
          ],
          [
            -58.396785743,
            -34.5667788659999
          ],
          [
            -58.396657252,
            -34.566821697
          ],
          [
            -58.3965501759999,
            -34.566864527
          ],
          [
            -58.3964430999999,
            -34.5669930179999
          ],
          [
            -58.396250364,
            -34.567200031
          ],
          [
            -58.3959576899999,
            -34.567678303
          ],
          [
            -58.3958149229999,
            -34.567842485
          ],
          [
            -58.395729262,
            -34.5680423599999
          ],
          [
            -58.395593633,
            -34.5682636499999
          ],
          [
            -58.395393758,
            -34.5685491849999
          ],
          [
            -58.395358066,
            -34.568684815
          ],
          [
            -58.395343789,
            -34.5687990289999
          ],
          [
            -58.3953080969999,
            -34.5688918279999
          ],
          [
            -58.3951938829999,
            -34.5690560109999
          ],
          [
            -58.395086808,
            -34.5691630859999
          ],
          [
            -58.395001147,
            -34.569227332
          ],
          [
            -58.394886932,
            -34.5692773
          ],
          [
            -58.3947727189999,
            -34.569227332
          ],
          [
            -58.394715612,
            -34.5691773629999
          ],
          [
            -58.394608536,
            -34.569263023
          ],
          [
            -58.3929464729999,
            -34.5720201839999
          ],
          [
            -58.39254837,
            -34.5722458509999
          ],
          [
            -58.39017102,
            -34.573593463
          ],
          [
            -58.3897912149999,
            -34.5738087559999
          ],
          [
            -58.38536551,
            -34.57631749
          ],
          [
            -58.3849493829999,
            -34.576283646
          ],
          [
            -58.3849003349999,
            -34.576322884
          ],
          [
            -58.3842864339999,
            -34.5762800539999
          ],
          [
            -58.383936653,
            -34.576244361
          ],
          [
            -58.383415551,
            -34.5761729779999
          ],
          [
            -58.382858757,
            -34.5756233229999
          ],
          [
            -58.382858757,
            -34.5755233859999
          ],
          [
            -58.3829087249999,
            -34.5753948949999
          ],
          [
            -58.38306577,
            -34.575309234
          ],
          [
            -58.383956051,
            -34.5748111739999
          ],
          [
            -58.384086559,
            -34.574738162
          ],
          [
            -58.385207285,
            -34.5741171239999
          ],
          [
            -58.38544333,
            -34.573984971
          ],
          [
            -58.387234586,
            -34.5729821209999
          ],
          [
            -58.3895430549999,
            -34.571616127
          ],
          [
            -58.3899971399999,
            -34.5713474309999
          ],
          [
            -58.3908015009999,
            -34.570903647
          ],
          [
            -58.391032206,
            -34.570776361
          ],
          [
            -58.391267773,
            -34.570662146
          ],
          [
            -58.391317741,
            -34.570533656
          ],
          [
            -58.391296326,
            -34.570376611
          ],
          [
            -58.391182111,
            -34.570169597
          ],
          [
            -58.39106076,
            -34.570019691
          ],
          [
            -58.3908680229999,
            -34.5698483699999
          ],
          [
            -58.390789501,
            -34.5697841259999
          ],
          [
            -58.390782666,
            -34.569776212
          ],
          [
            -58.390687381,
            -34.5696658809999
          ],
          [
            -58.390653872,
            -34.569627081
          ],
          [
            -58.390518242,
            -34.569412929
          ],
          [
            -58.39043972,
            -34.569341546
          ],
          [
            -58.3903540599999,
            -34.5692987159999
          ],
          [
            -58.390254122,
            -34.5692773
          ],
          [
            -58.390054248,
            -34.569255884
          ],
          [
            -58.38986865,
            -34.569241609
          ],
          [
            -58.389765471,
            -34.569233831
          ],
          [
            -58.384186497,
            -34.568813306
          ],
          [
            -58.384065144,
            -34.568741922
          ],
          [
            -58.384002773,
            -34.568706994
          ],
          [
            -58.3838866849999,
            -34.568641984
          ],
          [
            -58.3836439799999,
            -34.5685563229999
          ],
          [
            -58.383322752,
            -34.5684492469999
          ],
          [
            -58.382951556,
            -34.5684135559999
          ],
          [
            -58.382666021,
            -34.568399278
          ],
          [
            -58.382294825,
            -34.5683850029999
          ],
          [
            -58.381795138,
            -34.568356449
          ],
          [
            -58.3815809869999,
            -34.568327896
          ],
          [
            -58.381416804,
            -34.568342171
          ],
          [
            -58.381324005,
            -34.5684349709999
          ],
          [
            -58.381138407,
            -34.568499216
          ],
          [
            -58.3811077569999,
            -34.5685180789999
          ],
          [
            -58.381045608,
            -34.5685563229999
          ],
          [
            -58.3810020019999,
            -34.5686066389999
          ],
          [
            -58.380952809,
            -34.5686633989999
          ],
          [
            -58.380895702,
            -34.568770474
          ],
          [
            -58.3808457329999,
            -34.5689132429999
          ],
          [
            -58.38081718,
            -34.5690631489999
          ],
          [
            -58.380767211,
            -34.5691845009999
          ],
          [
            -58.380760073,
            -34.569270162
          ],
          [
            -58.380738658,
            -34.569398653
          ],
          [
            -58.3807315189999,
            -34.569527143
          ],
          [
            -58.380738658,
            -34.569684187
          ],
          [
            -58.3807315189999,
            -34.569869786
          ],
          [
            -58.3807191729999,
            -34.5701969739999
          ],
          [
            -58.3807172429999,
            -34.570248121
          ],
          [
            -58.3807172429999,
            -34.570369473
          ],
          [
            -58.3807172429999,
            -34.570497963
          ],
          [
            -58.380702965,
            -34.570626455
          ],
          [
            -58.380695827,
            -34.570783499
          ],
          [
            -58.380652997,
            -34.5709476819999
          ],
          [
            -58.380538783,
            -34.5710761729999
          ],
          [
            -58.3800747879999,
            -34.5713046
          ],
          [
            -58.379546548,
            -34.5716044129999
          ],
          [
            -58.379153937,
            -34.571804288
          ],
          [
            -58.378757706,
            -34.572012989
          ],
          [
            -58.378218808,
            -34.572296836
          ],
          [
            -58.378186365,
            -34.5725419619999
          ],
          [
            -58.378174982,
            -34.572627971
          ],
          [
            -58.378154563,
            -34.572782247
          ],
          [
            -58.3803174929999,
            -34.572960705
          ],
          [
            -58.3821476649999,
            -34.573088577
          ],
          [
            -58.383586872,
            -34.573189133
          ],
          [
            -58.383586872,
            -34.5733890079999
          ],
          [
            -58.381795138,
            -34.5743955209999
          ],
          [
            -58.381663927,
            -34.5743840339999
          ],
          [
            -58.3796750389999,
            -34.574209922
          ],
          [
            -58.379269012,
            -34.574182272
          ],
          [
            -58.3776834299999,
            -34.574074294
          ],
          [
            -58.3755204999999,
            -34.573917249
          ],
          [
            -58.372458133,
            -34.5756375999999
          ],
          [
            -58.370773475,
            -34.576622696
          ],
          [
            -58.370759198,
            -34.577079553
          ],
          [
            -58.372436718,
            -34.577222321
          ],
          [
            -58.372700837,
            -34.577250874
          ],
          [
            -58.37604874,
            -34.57748644
          ],
          [
            -58.376098709,
            -34.5775221329999
          ],
          [
            -58.376063017,
            -34.5776934529999
          ],
          [
            -58.375834589,
            -34.577850498
          ],
          [
            -58.374342666,
            -34.5787142419999
          ],
          [
            -58.37404449,
            -34.5787142419999
          ],
          [
            -58.3738715329999,
            -34.578714243
          ],
          [
            -58.370313493,
            -34.578425524
          ],
          [
            -58.367889568,
            -34.578228832
          ],
          [
            -58.367160213,
            -34.578625925
          ],
          [
            -58.365849533,
            -34.579339518
          ],
          [
            -58.36531975,
            -34.579627955
          ],
          [
            -58.3652949849999,
            -34.57981122
          ],
          [
            -58.3652654369999,
            -34.5800298779999
          ],
          [
            -58.3652483669999,
            -34.580156196
          ],
          [
            -58.365334027,
            -34.580170472
          ],
          [
            -58.369488566,
            -34.580513115
          ],
          [
            -58.3695564299999,
            -34.580517781
          ],
          [
            -58.370630707,
            -34.5805916369999
          ],
          [
            -58.370623569,
            -34.5808200659999
          ],
          [
            -58.3690388479999,
            -34.5817409169999
          ],
          [
            -58.365769467,
            -34.5814839349999
          ],
          [
            -58.362325278,
            -34.581210304
          ],
          [
            -58.361636345,
            -34.58115557
          ],
          [
            -58.3615772439999,
            -34.581641711
          ],
          [
            -58.361415054,
            -34.582975857
          ],
          [
            -58.362430086,
            -34.5830530869999
          ],
          [
            -58.363355633,
            -34.58312351
          ],
          [
            -58.3660121739999,
            -34.583325638
          ],
          [
            -58.3661549409999,
            -34.583332776
          ],
          [
            -58.36616208,
            -34.583532651
          ],
          [
            -58.364944586,
            -34.584507731
          ],
          [
            -58.3599088559999,
            -34.5841179989999
          ],
          [
            -58.359689303,
            -34.585764648
          ],
          [
            -58.3596661509999,
            -34.5859382859999
          ],
          [
            -58.363281193,
            -34.586201081
          ],
          [
            -58.363692199,
            -34.586230959
          ],
          [
            -58.36355657,
            -34.5874801759999
          ],
          [
            -58.359587628,
            -34.5871732269999
          ],
          [
            -58.359473415,
            -34.58808694
          ],
          [
            -58.3595590749999,
            -34.588094078
          ],
          [
            -58.359573352,
            -34.58812977
          ],
          [
            -58.359590252,
            -34.588186105
          ],
          [
            -58.359616182,
            -34.588272537
          ],
          [
            -58.359637597,
            -34.588379613
          ],
          [
            -58.3597732269999,
            -34.588415305
          ],
          [
            -58.3603442959999,
            -34.588543795
          ],
          [
            -58.363940853,
            -34.5892760749999
          ],
          [
            -58.367184311,
            -34.5898908099999
          ],
          [
            -58.367895517,
            -34.590025606
          ],
          [
            -58.36792407,
            -34.5901398199999
          ],
          [
            -58.367874102,
            -34.590339694
          ],
          [
            -58.367816994,
            -34.5904253539999
          ],
          [
            -58.367674227,
            -34.5905252919999
          ],
          [
            -58.367545736,
            -34.590603815
          ],
          [
            -58.367481491,
            -34.590618091
          ],
          [
            -58.367281615,
            -34.5906252299999
          ],
          [
            -58.367110295,
            -34.590618091
          ],
          [
            -58.36686759,
            -34.5906894739999
          ],
          [
            -58.366724822,
            -34.590739443
          ],
          [
            -58.3666819919999,
            -34.5907965499999
          ],
          [
            -58.36663916,
            -34.590825104
          ],
          [
            -58.365325699,
            -34.592716776
          ],
          [
            -58.364362017,
            -34.59419442
          ],
          [
            -58.364347741,
            -34.594258667
          ],
          [
            -58.364354879,
            -34.5943086349999
          ],
          [
            -58.3644119859999,
            -34.594401433
          ],
          [
            -58.364590445,
            -34.5944728179999
          ],
          [
            -58.364683245,
            -34.594487095
          ],
          [
            -58.36474749,
            -34.594487095
          ],
          [
            -58.3647831819999,
            -34.59446568
          ],
          [
            -58.364875981,
            -34.594372881
          ],
          [
            -58.3655255739999,
            -34.59335923
          ],
          [
            -58.365911046,
            -34.5928024369999
          ],
          [
            -58.366125198,
            -34.59287382
          ],
          [
            -58.366217997,
            -34.592731052
          ],
          [
            -58.3662108579999,
            -34.592709638
          ],
          [
            -58.366996081,
            -34.5915246659999
          ],
          [
            -58.367267339,
            -34.5914175899999
          ],
          [
            -58.3673315839999,
            -34.5914175899999
          ],
          [
            -58.3673387229999,
            -34.591460421
          ],
          [
            -58.366367902,
            -34.593016588
          ],
          [
            -58.3669246969999,
            -34.59323074
          ],
          [
            -58.367024634,
            -34.5930736949999
          ],
          [
            -58.366996081,
            -34.5930522789999
          ],
          [
            -58.3674743519999,
            -34.592245642
          ],
          [
            -58.367638535,
            -34.592060045
          ],
          [
            -58.367874102,
            -34.5920529059999
          ],
          [
            -58.367902655,
            -34.592102875
          ],
          [
            -58.367895517,
            -34.592145704
          ],
          [
            -58.3673030309999,
            -34.593102248
          ],
          [
            -58.3671888169999,
            -34.593280707
          ],
          [
            -58.3671888169999,
            -34.5933235379999
          ],
          [
            -58.3680668379999,
            -34.5936875959999
          ],
          [
            -58.369130457,
            -34.5940516539999
          ],
          [
            -58.3684665879999,
            -34.595779142
          ],
          [
            -58.3679597619999,
            -34.5974638
          ],
          [
            -58.36792407,
            -34.597535184
          ],
          [
            -58.363969406,
            -34.597213957
          ],
          [
            -58.363848054,
            -34.597171127
          ],
          [
            -58.3644048479999,
            -34.595493607
          ],
          [
            -58.364478601,
            -34.595319866
          ],
          [
            -58.3641502359999,
            -34.5952199279999
          ],
          [
            -58.363850424,
            -34.595262759
          ],
          [
            -58.363803761,
            -34.595429666
          ],
          [
            -58.363008094,
            -34.5952342049999
          ],
          [
            -58.360303835,
            -34.595042141
          ],
          [
            -58.360290107,
            -34.5950411659999
          ],
          [
            -58.359290395,
            -34.594970164
          ],
          [
            -58.357982673,
            -34.5948772849999
          ],
          [
            -58.356654933,
            -34.5948772849999
          ],
          [
            -58.356223636,
            -34.5949816309999
          ],
          [
            -58.355769773,
            -34.595091437
          ],
          [
            -58.355562761,
            -34.595177098
          ],
          [
            -58.3552423799999,
            -34.595475536
          ],
          [
            -58.3550786599999,
            -34.59562804
          ],
          [
            -58.3550416589999,
            -34.595662508
          ],
          [
            -58.354943061,
            -34.595742453
          ],
          [
            -58.3549005089999,
            -34.595776953
          ],
          [
            -58.354617919,
            -34.596006082
          ],
          [
            -58.354556208,
            -34.596056118
          ],
          [
            -58.3545134189999,
            -34.596090811
          ],
          [
            -58.354465669,
            -34.5961052659999
          ],
          [
            -58.3544653979999,
            -34.596105348
          ],
          [
            -58.354017198,
            -34.596241042
          ],
          [
            -58.35371155,
            -34.5964644269999
          ],
          [
            -58.3535259509999,
            -34.596571503
          ],
          [
            -58.3532546929999,
            -34.5967570999999
          ],
          [
            -58.3531047869999,
            -34.596928421
          ],
          [
            -58.352990572,
            -34.597021221
          ],
          [
            -58.352940604,
            -34.5971211579999
          ],
          [
            -58.3529174129999,
            -34.597163123
          ],
          [
            -58.352790698,
            -34.597392417
          ],
          [
            -58.352655069,
            -34.5976137069999
          ],
          [
            -58.3525051619999,
            -34.5977778889999
          ],
          [
            -58.3522339039999,
            -34.597999178
          ],
          [
            -58.3520982749999,
            -34.598063425
          ],
          [
            -58.351969783,
            -34.5981348089999
          ],
          [
            -58.351898401,
            -34.598206192
          ],
          [
            -58.351777048,
            -34.598341822
          ],
          [
            -58.3516128649999,
            -34.5984988659999
          ],
          [
            -58.351427267,
            -34.5986487709999
          ],
          [
            -58.3513273299999,
            -34.598720156
          ],
          [
            -58.3512273929999,
            -34.598784402
          ],
          [
            -58.35114887,
            -34.598848647
          ],
          [
            -58.3510846249999,
            -34.5989200299999
          ],
          [
            -58.351004291,
            -34.5989601979999
          ],
          [
            -58.3509561339999,
            -34.598984276
          ],
          [
            -58.35079909,
            -34.599027107
          ],
          [
            -58.350677736,
            -34.599105629
          ],
          [
            -58.3506063529999,
            -34.599169874
          ],
          [
            -58.350513554,
            -34.599234119
          ],
          [
            -58.35044217,
            -34.599298365
          ],
          [
            -58.35035651,
            -34.5994054409999
          ],
          [
            -58.349244757,
            -34.6003408029999
          ],
          [
            -58.349069926,
            -34.6004878969999
          ],
          [
            -58.348782613,
            -34.6007296239999
          ],
          [
            -58.348779575,
            -34.60073218
          ],
          [
            -58.347984082,
            -34.601401462
          ],
          [
            -58.347188589,
            -34.6020707449999
          ],
          [
            -58.347106265,
            -34.6021400079999
          ],
          [
            -58.346846795,
            -34.6023583109999
          ],
          [
            -58.346694497,
            -34.603114551
          ],
          [
            -58.346165539,
            -34.605741102
          ],
          [
            -58.3460187429999,
            -34.60647002
          ],
          [
            -58.345663067,
            -34.606872129
          ],
          [
            -58.345580932,
            -34.606964988
          ],
          [
            -58.345473856,
            -34.6070078189999
          ],
          [
            -58.345331088,
            -34.607079202
          ],
          [
            -58.3451312129999,
            -34.607207693
          ],
          [
            -58.344909924,
            -34.60735046
          ],
          [
            -58.344717187,
            -34.6075146429999
          ],
          [
            -58.344616537,
            -34.607575643
          ],
          [
            -58.3444816209999,
            -34.607657412
          ],
          [
            -58.344317438,
            -34.6077430719999
          ],
          [
            -58.3442531919999,
            -34.6077716249999
          ],
          [
            -58.3441318399999,
            -34.607821594
          ],
          [
            -58.344053318,
            -34.6078787009999
          ],
          [
            -58.343924827,
            -34.607957224
          ],
          [
            -58.3437463669999,
            -34.608071438
          ],
          [
            -58.34368926,
            -34.6081356829999
          ],
          [
            -58.343660707,
            -34.608178514
          ],
          [
            -58.343582184,
            -34.608207066
          ],
          [
            -58.343475108,
            -34.6082784509999
          ],
          [
            -58.3433537559999,
            -34.608371249
          ],
          [
            -58.3432324039999,
            -34.608449772
          ],
          [
            -58.343132466,
            -34.6085282929999
          ],
          [
            -58.343032529,
            -34.608599678
          ],
          [
            -58.3429682829999,
            -34.608663924
          ],
          [
            -58.342904038,
            -34.6087567229999
          ],
          [
            -58.3428326539999,
            -34.6088066899999
          ],
          [
            -58.3427398549999,
            -34.608878075
          ],
          [
            -58.342610264,
            -34.6089769719999
          ],
          [
            -58.3424685969999,
            -34.609085088
          ],
          [
            -58.342412821,
            -34.609125847
          ],
          [
            -58.342282999,
            -34.609220717
          ],
          [
            -58.3420902619999,
            -34.609384899
          ],
          [
            -58.341897526,
            -34.609513391
          ],
          [
            -58.341683374,
            -34.609656158
          ],
          [
            -58.3414835,
            -34.6097917879999
          ],
          [
            -58.341383562,
            -34.609884587
          ],
          [
            -58.341276487,
            -34.6100416319999
          ],
          [
            -58.3412122409999,
            -34.610141568
          ],
          [
            -58.341162272,
            -34.610220091
          ],
          [
            -58.341090889,
            -34.610334305
          ],
          [
            -58.34099809,
            -34.610391412
          ],
          [
            -58.340905291,
            -34.610477073
          ],
          [
            -58.3408410449999,
            -34.610605564
          ],
          [
            -58.3407910769999,
            -34.6106912239999
          ],
          [
            -58.340741108,
            -34.6108197149999
          ],
          [
            -58.3406911389999,
            -34.611026728
          ],
          [
            -58.340591202,
            -34.611433615
          ],
          [
            -58.340541233,
            -34.611654905
          ],
          [
            -58.3404707779999,
            -34.6118882869999
          ],
          [
            -58.3404270189999,
            -34.612033239
          ],
          [
            -58.340355635,
            -34.612225977
          ],
          [
            -58.3403056659999,
            -34.612354468
          ],
          [
            -58.340269975,
            -34.612497235
          ],
          [
            -58.340234283,
            -34.6126114479999
          ],
          [
            -58.340212868,
            -34.61273994
          ],
          [
            -58.3401628989999,
            -34.612889845
          ],
          [
            -58.340120069,
            -34.613018337
          ],
          [
            -58.3400772379999,
            -34.613146827
          ],
          [
            -58.3400558229999,
            -34.613268181
          ],
          [
            -58.3400486849999,
            -34.6133752549999
          ],
          [
            -58.340020131,
            -34.613503747
          ],
          [
            -58.339984439,
            -34.613653653
          ],
          [
            -58.339955886,
            -34.613789282
          ],
          [
            -58.3399187809999,
            -34.613964691
          ],
          [
            -58.339877364,
            -34.614160479
          ],
          [
            -58.339834533,
            -34.614338937
          ],
          [
            -58.339827395,
            -34.614517398
          ],
          [
            -58.3398202559999,
            -34.6146601639999
          ],
          [
            -58.3397988409999,
            -34.6147601019999
          ],
          [
            -58.33978834,
            -34.6148231089999
          ],
          [
            -58.3397845649999,
            -34.6148457629999
          ],
          [
            -58.339785282,
            -34.614856521
          ],
          [
            -58.3397917029999,
            -34.614952839
          ],
          [
            -58.3397845649999,
            -34.615081329
          ],
          [
            -58.339777426,
            -34.615209821
          ],
          [
            -58.339770287,
            -34.615409695
          ],
          [
            -58.339770287,
            -34.615538186
          ],
          [
            -58.3397845649999,
            -34.615573877
          ],
          [
            -58.339777426,
            -34.615723784
          ],
          [
            -58.3397845649999,
            -34.615852275
          ],
          [
            -58.3397845649999,
            -34.6159879049999
          ],
          [
            -58.3397988409999,
            -34.616109256
          ],
          [
            -58.339799247,
            -34.6161106759999
          ],
          [
            -58.339827395,
            -34.616209193
          ],
          [
            -58.3398810099999,
            -34.616273532
          ],
          [
            -58.340879107,
            -34.6169634419999
          ],
          [
            -58.341270246,
            -34.6170252009999
          ],
          [
            -58.341692883,
            -34.617091934
          ],
          [
            -58.342470077,
            -34.617091934
          ],
          [
            -58.342712585,
            -34.617091934
          ],
          [
            -58.342777917,
            -34.617091934
          ],
          [
            -58.343677353,
            -34.617220424
          ],
          [
            -58.344284385,
            -34.617379274
          ],
          [
            -58.345204967,
            -34.617620174
          ],
          [
            -58.345209589,
            -34.61771146
          ],
          [
            -58.3452620739999,
            -34.618748039
          ],
          [
            -58.344605343,
            -34.6189621899999
          ],
          [
            -58.343250892,
            -34.6186429259999
          ],
          [
            -58.3427102379999,
            -34.618515487
          ],
          [
            -58.3426065959999,
            -34.618491057
          ],
          [
            -58.3413502399999,
            -34.6184339499999
          ],
          [
            -58.341032738,
            -34.6184586909999
          ],
          [
            -58.340250929,
            -34.61851961
          ],
          [
            -58.338894636,
            -34.61851961
          ],
          [
            -58.338366396,
            -34.618705209
          ],
          [
            -58.338165257,
            -34.618919322
          ],
          [
            -58.33800501,
            -34.61908991
          ],
          [
            -58.3379238159999,
            -34.6191763419999
          ],
          [
            -58.3376525579999,
            -34.6196760289999
          ],
          [
            -58.337631156,
            -34.6197891539999
          ],
          [
            -58.3375526199999,
            -34.6202042689999
          ],
          [
            -58.337441241,
            -34.620546362
          ],
          [
            -58.337352746,
            -34.6208181699999
          ],
          [
            -58.3370243799999,
            -34.621289303
          ],
          [
            -58.336867336,
            -34.621788989
          ],
          [
            -58.3369023559999,
            -34.621990355
          ],
          [
            -58.336957787,
            -34.622309085
          ],
          [
            -58.33698155,
            -34.62244572
          ],
          [
            -58.3371557199999,
            -34.62257239
          ],
          [
            -58.337452683,
            -34.622788364
          ],
          [
            -58.338080861,
            -34.6228454709999
          ],
          [
            -58.3390685919999,
            -34.622714356
          ],
          [
            -58.3396941349999,
            -34.6226313189999
          ],
          [
            -58.34042225,
            -34.622774087
          ],
          [
            -58.3403365899999,
            -34.62315956
          ],
          [
            -58.339828585,
            -34.6234409699999
          ],
          [
            -58.339692955,
            -34.623583739
          ],
          [
            -58.339543049,
            -34.623719368
          ],
          [
            -58.33940742,
            -34.623833582
          ],
          [
            -58.3392860669999,
            -34.62393352
          ],
          [
            -58.3391361609999,
            -34.6240762859999
          ],
          [
            -58.338979117,
            -34.624204778
          ],
          [
            -58.338850625,
            -34.6242975759999
          ],
          [
            -58.33870072,
            -34.624454621
          ],
          [
            -58.338565091,
            -34.624575974
          ],
          [
            -58.3384865689999,
            -34.6246544959999
          ],
          [
            -58.33839377,
            -34.6246830499999
          ],
          [
            -58.338272417,
            -34.624725879
          ],
          [
            -58.338201033,
            -34.6247687109999
          ],
          [
            -58.337665655,
            -34.624882924
          ],
          [
            -58.3374943329999,
            -34.6249043399999
          ],
          [
            -58.337387258,
            -34.6249328929999
          ],
          [
            -58.337215936,
            -34.6249471689999
          ],
          [
            -58.33706603,
            -34.624968585
          ],
          [
            -58.3369589549999,
            -34.6250399689999
          ],
          [
            -58.335995273,
            -34.625746668
          ],
          [
            -58.3358453669999,
            -34.6258180529999
          ],
          [
            -58.3357311519999,
            -34.6259251289999
          ],
          [
            -58.3357240139999,
            -34.625989374
          ],
          [
            -58.335645492,
            -34.6260821729999
          ],
          [
            -58.33552414,
            -34.626160695
          ],
          [
            -58.3353598479999,
            -34.6262976039999
          ],
          [
            -58.3353528179999,
            -34.6263034629999
          ],
          [
            -58.335231466,
            -34.6264105389999
          ],
          [
            -58.3351886359999,
            -34.626517614
          ],
          [
            -58.3351886359999,
            -34.626631829
          ],
          [
            -58.335195773,
            -34.626796011
          ],
          [
            -58.3351886359999,
            -34.626903087
          ],
          [
            -58.335145805,
            -34.626988747
          ],
          [
            -58.335145805,
            -34.6270672699999
          ],
          [
            -58.335195773,
            -34.627160069
          ],
          [
            -58.3353099879999,
            -34.627267145
          ],
          [
            -58.3359595809999,
            -34.6278310769999
          ],
          [
            -58.336212577,
            -34.628027851
          ],
          [
            -58.3361534969999,
            -34.6282278109999
          ],
          [
            -58.336366228,
            -34.6282779209999
          ],
          [
            -58.3369641309999,
            -34.628418761
          ],
          [
            -58.3382228569999,
            -34.62871526
          ],
          [
            -58.338590675,
            -34.628801902
          ],
          [
            -58.3389397999999,
            -34.62888414
          ],
          [
            -58.33936577,
            -34.6289844799999
          ],
          [
            -58.339835611,
            -34.627888183
          ],
          [
            -58.3398369029999,
            -34.627885169
          ],
          [
            -58.339853986,
            -34.627888183
          ],
          [
            -58.339921852,
            -34.62790016
          ],
          [
            -58.3403223129999,
            -34.6279708289999
          ],
          [
            -58.3424638279999,
            -34.626157679
          ],
          [
            -58.344219869,
            -34.626343278
          ],
          [
            -58.3442627009999,
            -34.6265717059999
          ],
          [
            -58.341362846,
            -34.6289507129999
          ],
          [
            -58.3413216869999,
            -34.6289844799999
          ],
          [
            -58.341424288,
            -34.6290094829999
          ],
          [
            -58.342384059,
            -34.629243377
          ],
          [
            -58.3427472239999,
            -34.6293318799999
          ],
          [
            -58.342892174,
            -34.6293672039999
          ],
          [
            -58.343020622,
            -34.629398506
          ],
          [
            -58.343269285,
            -34.6292516149999
          ],
          [
            -58.343398774,
            -34.629145669
          ],
          [
            -58.344525641,
            -34.6282236869999
          ],
          [
            -58.344559217,
            -34.6282236869999
          ],
          [
            -58.344739792,
            -34.6282236869999
          ],
          [
            -58.3453251399999,
            -34.628666268
          ],
          [
            -58.343101342,
            -34.6302384699999
          ],
          [
            -58.3451534019999,
            -34.6322655229999
          ],
          [
            -58.345329861,
            -34.6323398219999
          ],
          [
            -58.345345202,
            -34.632346281
          ],
          [
            -58.3474146299999,
            -34.6332176189999
          ],
          [
            -58.3479728889999,
            -34.6334526749999
          ],
          [
            -58.349674379,
            -34.634169092
          ],
          [
            -58.350122052,
            -34.6344153119999
          ],
          [
            -58.350227003,
            -34.6344730349999
          ],
          [
            -58.350310698,
            -34.634519068
          ],
          [
            -58.35110273,
            -34.634954686
          ],
          [
            -58.3520538399999,
            -34.635477796
          ],
          [
            -58.3542553199999,
            -34.63718798
          ],
          [
            -58.35587154,
            -34.6381603899999
          ],
          [
            -58.357050708,
            -34.639403907
          ],
          [
            -58.3571151529999,
            -34.6394941299999
          ],
          [
            -58.35722817,
            -34.639652353
          ],
          [
            -58.357645572,
            -34.640236718
          ],
          [
            -58.357624523,
            -34.6405103559999
          ],
          [
            -58.3576107339999,
            -34.6406896149999
          ],
          [
            -58.3575266,
            -34.6417833679999
          ],
          [
            -58.3571011459999,
            -34.642705183
          ],
          [
            -58.3570352689999,
            -34.6428479159999
          ],
          [
            -58.356897815,
            -34.643145733
          ],
          [
            -58.35681276,
            -34.64333002
          ],
          [
            -58.356622149,
            -34.6445231599999
          ],
          [
            -58.357306981,
            -34.645256913
          ],
          [
            -58.357403238,
            -34.645360046
          ],
          [
            -58.357454957,
            -34.64541546
          ],
          [
            -58.3575071069999,
            -34.6454395289999
          ],
          [
            -58.358077838,
            -34.6457029439999
          ],
          [
            -58.359001607,
            -34.6461293
          ],
          [
            -58.359264407,
            -34.6463044989999
          ],
          [
            -58.3604292799999,
            -34.647081081
          ],
          [
            -58.361619011,
            -34.64821133
          ],
          [
            -58.362790431,
            -34.6486017999999
          ],
          [
            -58.3628682309999,
            -34.648627732
          ],
          [
            -58.363147467,
            -34.648655656
          ],
          [
            -58.36405796,
            -34.648746709
          ],
          [
            -58.364398971,
            -34.648976192
          ],
          [
            -58.3644315239999,
            -34.6489981
          ],
          [
            -58.365008125,
            -34.649386127
          ],
          [
            -58.365378821,
            -34.649635589
          ],
          [
            -58.366688556,
            -34.650240082
          ],
          [
            -58.3669254709999,
            -34.650349427
          ],
          [
            -58.3678250689999,
            -34.650786876
          ],
          [
            -58.368357499,
            -34.6510457809999
          ],
          [
            -58.3684004799999,
            -34.6510666799999
          ],
          [
            -58.36918596,
            -34.651896079
          ],
          [
            -58.36918596,
            -34.65320478
          ],
          [
            -58.3695267809999,
            -34.653801221
          ],
          [
            -58.3696499329999,
            -34.654016735
          ],
          [
            -58.3696618509999,
            -34.654037591
          ],
          [
            -58.369861156,
            -34.654148317
          ],
          [
            -58.370732608,
            -34.6546324569999
          ],
          [
            -58.371028268,
            -34.654794695
          ],
          [
            -58.3710781309999,
            -34.6548220569999
          ],
          [
            -58.37214813,
            -34.655409199
          ],
          [
            -58.37309991,
            -34.6564204699999
          ],
          [
            -58.373584928,
            -34.6568145429999
          ],
          [
            -58.374051697,
            -34.6571937919999
          ],
          [
            -58.37571732,
            -34.6571937919999
          ],
          [
            -58.376277234,
            -34.657242481
          ],
          [
            -58.37650329,
            -34.657262138
          ],
          [
            -58.376506368,
            -34.657262406
          ],
          [
            -58.37708551,
            -34.657312766
          ],
          [
            -58.377795036,
            -34.6574648069999
          ],
          [
            -58.3787511319999,
            -34.6576696829999
          ],
          [
            -58.3804646949999,
            -34.657821541
          ],
          [
            -58.3807263429999,
            -34.657844729
          ],
          [
            -58.381267694,
            -34.657844729
          ],
          [
            -58.3812677239999,
            -34.65784473
          ],
          [
            -58.382391969,
            -34.65784473
          ],
          [
            -58.38381964,
            -34.65784473
          ],
          [
            -58.3845547299999,
            -34.657986179
          ],
          [
            -58.38524732,
            -34.65820165
          ],
          [
            -58.385736885,
            -34.658566798
          ],
          [
            -58.3861828399999,
            -34.65889942
          ],
          [
            -58.38682457,
            -34.65966536
          ],
          [
            -58.387233194,
            -34.6601287829999
          ],
          [
            -58.38730344,
            -34.66020845
          ],
          [
            -58.387430659,
            -34.6603527309999
          ],
          [
            -58.387469203,
            -34.660375094
          ],
          [
            -58.3874692319999,
            -34.660375109
          ],
          [
            -58.387989201,
            -34.66067678
          ],
          [
            -58.38842088,
            -34.660793989
          ],
          [
            -58.38874487,
            -34.66088196
          ],
          [
            -58.388746179,
            -34.6608822709999
          ],
          [
            -58.3896909269999,
            -34.6611067609999
          ],
          [
            -58.390100317,
            -34.66120404
          ],
          [
            -58.3904848399999,
            -34.66129541
          ],
          [
            -58.3908888989999,
            -34.6618453
          ],
          [
            -58.39176831,
            -34.662405001
          ],
          [
            -58.3927304659999,
            -34.662666552
          ],
          [
            -58.3929722509999,
            -34.662652508
          ],
          [
            -58.393592624,
            -34.662616473
          ],
          [
            -58.3937555749999,
            -34.662607008
          ],
          [
            -58.39381338,
            -34.6626036499999
          ],
          [
            -58.395535539,
            -34.662228259
          ],
          [
            -58.395978612,
            -34.662250854
          ],
          [
            -58.396463479,
            -34.662275581
          ],
          [
            -58.39749639,
            -34.6621889799999
          ],
          [
            -58.3976211739999,
            -34.662060099
          ],
          [
            -58.39797175,
            -34.66169801
          ],
          [
            -58.398898701,
            -34.66115794
          ],
          [
            -58.3999884309999,
            -34.661040123
          ],
          [
            -58.4001702899999,
            -34.661020461
          ],
          [
            -58.400429646,
            -34.660855269
          ],
          [
            -58.4004297,
            -34.6608552349999
          ],
          [
            -58.40074072,
            -34.66065714
          ],
          [
            -58.4019647699999,
            -34.65995995
          ],
          [
            -58.4022850329999,
            -34.659912778
          ],
          [
            -58.402351731,
            -34.659902954
          ],
          [
            -58.402457335,
            -34.659887399
          ],
          [
            -58.4033785509999,
            -34.659751711
          ],
          [
            -58.403465204,
            -34.65976634
          ],
          [
            -58.403749816,
            -34.659814383
          ],
          [
            -58.404671102,
            -34.659969899
          ],
          [
            -58.405472738,
            -34.660105217
          ],
          [
            -58.4055217439999,
            -34.66011357
          ],
          [
            -58.4055217759999,
            -34.6601135769999
          ],
          [
            -58.406558005,
            -34.660290179
          ],
          [
            -58.406558037,
            -34.660290183
          ],
          [
            -58.4066946,
            -34.660313459
          ],
          [
            -58.406802323,
            -34.660304142
          ],
          [
            -58.4068023519999,
            -34.660304142
          ],
          [
            -58.407096252,
            -34.6602787269999
          ],
          [
            -58.408375421,
            -34.6601681189999
          ],
          [
            -58.4084508559999,
            -34.660135499
          ],
          [
            -58.4086186339999,
            -34.660062946
          ],
          [
            -58.409375658,
            -34.659735586
          ],
          [
            -58.410576422,
            -34.659216333
          ],
          [
            -58.4118284799999,
            -34.6588699599999
          ],
          [
            -58.4132109339999,
            -34.65881881
          ],
          [
            -58.413420931,
            -34.6588110399999
          ],
          [
            -58.414152336,
            -34.658957812
          ],
          [
            -58.414152391,
            -34.658957823
          ],
          [
            -58.41508469,
            -34.6591449109999
          ],
          [
            -58.4157937639999,
            -34.659344459
          ],
          [
            -58.4157938,
            -34.659344469
          ],
          [
            -58.41672468,
            -34.6596064399999
          ],
          [
            -58.418911339,
            -34.6602741799999
          ],
          [
            -58.421402971,
            -34.6610604169999
          ],
          [
            -58.4215605159999,
            -34.6611385639999
          ],
          [
            -58.4220370899999,
            -34.6613749589999
          ],
          [
            -58.423147047,
            -34.6619255319999
          ],
          [
            -58.4236724739999,
            -34.6621861589999
          ],
          [
            -58.423729066,
            -34.66221423
          ],
          [
            -58.4237945899999,
            -34.6622467299999
          ],
          [
            -58.423831983,
            -34.662277229
          ],
          [
            -58.423832005,
            -34.662277252
          ],
          [
            -58.423858605,
            -34.662298956
          ],
          [
            -58.425642712,
            -34.663754474
          ],
          [
            -58.425642743,
            -34.663754501
          ],
          [
            -58.425649559,
            -34.6637600609999
          ],
          [
            -58.42742027,
            -34.6655078599999
          ],
          [
            -58.43794948,
            -34.67806538
          ],
          [
            -58.4469239049999,
            -34.6887666059999
          ],
          [
            -58.446924289,
            -34.6887670639999
          ],
          [
            -58.4503255769999,
            -34.692822806
          ],
          [
            -58.457543344,
            -34.7011739979999
          ],
          [
            -58.4575433859999,
            -34.7011740469999
          ],
          [
            -58.458958423,
            -34.7028112899999
          ],
          [
            -58.4612064419999,
            -34.705412322
          ],
          [
            -58.461367342,
            -34.7052915739999
          ],
          [
            -58.4616148709999,
            -34.70510582
          ],
          [
            -58.461616767,
            -34.705104396
          ],
          [
            -58.461724407,
            -34.705023619
          ],
          [
            -58.473203015,
            -34.696409579
          ],
          [
            -58.473682756,
            -34.6960495609999
          ],
          [
            -58.502419232,
            -34.674484486
          ],
          [
            -58.52888038,
            -34.6546269099999
          ],
          [
            -58.5302133289999,
            -34.6348165429999
          ],
          [
            -58.5313584529999,
            -34.617797684
          ],
          [
            -58.531358471,
            -34.617797406
          ],
          [
            -58.531358473,
            -34.617797378
          ],
          [
            -58.5313584749999,
            -34.617797351
          ],
          [
            -58.5315121099999,
            -34.6155140299999
          ],
          [
            -58.5294159589999,
            -34.611010133
          ],
          [
            -58.529412569,
            -34.611002851
          ],
          [
            -58.523143971,
            -34.5975338229999
          ],
          [
            -58.5155862409999,
            -34.581294896
          ],
          [
            -58.515585288,
            -34.58129285
          ],
          [
            -58.512484574,
            -34.574630495
          ],
          [
            -58.512484548,
            -34.5746304369999
          ],
          [
            -58.5124844759999,
            -34.5746302819999
          ],
          [
            -58.509959636,
            -34.5692052799999
          ],
          [
            -58.5099580419999,
            -34.5692018559999
          ],
          [
            -58.509958028,
            -34.569201829
          ],
          [
            -58.5007701499999,
            -34.5494602799999
          ],
          [
            -58.49914739,
            -34.548760369
          ],
          [
            -58.475865976,
            -34.538718865
          ],
          [
            -58.463531589,
            -34.53339892
          ],
          [
            -58.4634860799999,
            -34.53333328
          ],
          [
            -58.460250883,
            -34.528666588
          ],
          [
            -58.4595758999999,
            -34.527692943
          ],
          [
            -58.459567831,
            -34.5277550989999
          ],
          [
            -58.459564093,
            -34.527783905
          ],
          [
            -58.4595635709999,
            -34.527782964
          ],
          [
            -58.459475987,
            -34.527615758
          ],
          [
            -58.459420554,
            -34.5275099319999
          ],
          [
            -58.459348311,
            -34.52742324
          ],
          [
            -58.459277436,
            -34.527338191
          ],
          [
            -58.4591884339999,
            -34.5272313899999
          ],
          [
            -58.459133161,
            -34.52716506
          ],
          [
            -58.4590665389999,
            -34.5270851139999
          ],
          [
            -58.4590290739999,
            -34.527040155
          ],
          [
            -58.458928406,
            -34.5269852449999
          ],
          [
            -58.458746907,
            -34.52689672
          ],
          [
            -58.458497064,
            -34.526746814
          ],
          [
            -58.458347158,
            -34.526668292
          ],
          [
            -58.458111591,
            -34.526625462
          ],
          [
            -58.4579188549999,
            -34.5265683549999
          ],
          [
            -58.457747534,
            -34.5265398
          ],
          [
            -58.457476275,
            -34.526525525
          ],
          [
            -58.457340646,
            -34.526546939
          ],
          [
            -58.4570693869999,
            -34.526611185
          ],
          [
            -58.4567981289999,
            -34.5267182609999
          ],
          [
            -58.4566624989999,
            -34.526782506
          ],
          [
            -58.456455486,
            -34.526918135
          ],
          [
            -58.456191366,
            -34.527075179
          ],
          [
            -58.456189933,
            -34.527076076
          ],
          [
            -58.455848724,
            -34.527289331
          ],
          [
            -58.455684541,
            -34.527389269
          ],
          [
            -58.4555489109999,
            -34.527489206
          ],
          [
            -58.455463251,
            -34.527631974
          ],
          [
            -58.4553508879999,
            -34.5277628759999
          ]
        ]
      ]
    ]
  }
}
